STARLINK-37147          
1 68295U 26057B   26107.89502539  .00162699  00000+0  10675-2 0  9990
2 68295  97.2865 232.2440 0002039  54.7805 305.3651 15.75266247  4450
STARLINK-37142          
1 68296U 26057C   26107.88373645  .00221594  00000+0  14328-2 0  9993
2 68296  97.2860 232.2591 0002571  34.7068 325.4365 15.75437809  4452
STARLINK-37115          
1 68297U 26057D   26108.25003472 -.01763596  00000+0 -12536-1 0  9998
2 68297  97.2855 232.6843 0001744  67.9704 298.8653 15.76742599  5402
STARLINK-36355          
1 68298U 26057E   26107.86859893  .00208129  00000+0  10612-2 0  9998
2 68298  97.2860 232.2798 0002988  68.6501 291.5086 15.80821406  4452
STARLINK-37118          
1 68299U 26057F   26108.25003472 -.00021105  00000+0 -14087-3 0  9997
2 68299  97.2854 232.6808 0001172  72.3862 283.5348 15.75207664  5516
STARLINK-36875          
1 68300U 26057G   26107.92963719  .00147253  00000+0  75500-3 0  9990
2 68300  97.2855 232.3507 0001343  69.8944 290.2469 15.80862287  4461
STARLINK-37099          
1 68301U 26057H   26107.61162846  .00216284  00000+0  10988-2 0  9998
2 68301  97.2848 232.0164 0001179  80.9022 279.2379 15.80881679  4416
STARLINK-37007          
1 68302U 26057J   26107.86333680  .00231525  00000+0  11767-2 0  9993
2 68302  97.2856 232.2864 0002482  68.4006 291.7527 15.80833441  4458
STARLINK-36300          
1 68303U 26057K   26107.80078449  .00227872  00000+0  11545-2 0  9991
2 68303  97.2859 232.2191 0002013  45.4658 314.6775 15.80912436  4444
STARLINK-36849          
1 68304U 26057L   26108.25003472  .00022140  00000+0  14902-3 0  9998
2 68304  97.2857 232.6745 0001451  85.3708 258.5616 15.75174653  5576
STARLINK-36277          
1 68305U 26057M   26107.96349089  .00217509  00000+0  14210-2 0  9999
2 68305  97.2860 232.3017 0001562  74.5194 285.6244 15.75211670  4468
STARLINK-36307          
1 68306U 26057N   26107.86183229  .00238879  00000+0  12121-2 0  9993
2 68306  97.2840 232.2881 0002096  64.0256 296.1228 15.80850643  4454
STARLINK-36264          
1 68307U 26057P   26107.88761067  .00099428  00000+0  65922-3 0  9991
2 68307  97.2875 232.2515 0001534  79.8647 280.2791 15.75208266  4452
STARLINK-37138          
1 68308U 26057Q   26107.88584921  .00197550  00000+0  12900-2 0  9996
2 68308  97.2864 232.2524 0001638  56.8088 303.3334 15.75278832  4456
STARLINK-37149          
1 68309U 26057R   26107.88937459  .00079797  00000+0  53050-3 0  9999
2 68309  97.2866 232.2497 0001288  78.8491 281.2919 15.75206635  4456
STARLINK-37148          
1 68310U 26057S   26107.88019963  .00297853  00000+0  19289-2 0  9992
2 68310  97.2864 232.2615 0000897 100.2581 259.8785 15.75189985  4453
